SL-8 R/B                
1 15483U 85006B   26198.48247067  .00000117  00000+0  47337-4 0  9990
2 15483  74.0454  22.3115 0019258 265.0035 115.8849 14.37846071172688
SL-12 R/B(2)            
1 15772U 85042D   26198.35981390  .00000066  00000+0  51092-4 0  9997
2 15772  71.1067 173.7681 0037366 283.0157 239.8541 14.22011163132829
SL-14 R/B               
1 15945U 85069B   26198.45992034  .00000214  00000+0  21275-4 0  9991
2 15945  82.5260 262.8963 0020154 120.2525 240.0690 14.86536016192119
SL-16 R/B               
1 16182U 85097B   26198.50689038  .00000232  00000+0  14040-3 0  9990
2 16182  71.0006 227.2457 0005745  47.0336 102.5432 14.16613854105616
SL-14 R/B               
1 16496U 86006B   26198.26620059  .00000235  00000+0  22058-4 0  9992
2 16496  82.5283 137.8090 0075640 201.9347 157.8628 14.86969203168462
COSMOS 1743             
1 16719U 86034A   26198.26161071  .00036795  00000+0  30811-3 0  9990
2 16719  82.5274 296.6896 0005467 170.3376 189.7992 15.69781946200507
SL-14 R/B               
1 16792U 86046B   26198.32610730  .00000238  00000+0  24488-4 0  9999
2 16792  82.4840 317.6975 0023707 156.1210 204.1112 14.85691449145659
SL-14 R/B               
1 16882U 86055B   26198.44613881  .00000192  00000+0  19314-4 0  9993
2 16882  82.5205   4.6798 0017326 262.1370 127.7230 14.85741113138631
AJISAI (EGS)            
1 16908U 86061A   26198.64682292 -.00000101  00000+0 -23127-4 0  9992
2 16908  50.0107  53.7328 0011084 258.1517 147.7280 12.44516673484183
SL-14 R/B               
1 17567U 87024B   26198.37970822  .00000236  00000+0  24039-4 0  9993
2 17567  82.5299 330.8708 0018011 186.4080 173.6909 14.86232617107395
COSMOS 1833             
1 17589U 87027A   26198.54764971  .00000043  00000+0  48802-4 0  9995
2 17589  70.9212  53.0556 0024398   4.9441 355.1916 14.13067184 28662
SL-16 R/B               
1 17590U 87027B   26198.42611889  .00000190  00000+0  11783-3 0  9993
2 17590  71.0034   3.1044 0007153 279.3276  80.7039 14.17174231 33726
SL-14 R/B               
1 17912U 87038B   26198.37410827  .00000194  00000+0  19539-4 0  9998
2 17912  82.5014 174.6377 0020864  95.5430 264.8167 14.85462245 98487
COSMOS 1844             
1 17973U 87041A   26198.23113963  .00000030  00000+0  40837-4 0  9999
2 17973  70.8998 120.9356 0031199 192.3719 167.6640 14.14581146 21908
SL-14 R/B               
1 18153U 87055B   26198.53012143  .00000160  00000+0  15655-4 0  9990
2 18153  82.4969 226.6237 0019286 306.9040  53.0408 14.85727723 89210
COSMOS 1867             
1 18187U 87060A   26198.24325535 -.00000066  00000+0  12807-4 0  9995
2 18187  65.0118 303.8844 0017206 282.0014  77.9142 14.31518644 38481
SL-14 R/B               
1 18749U 88001B   26198.06282871  .00000200  00000+0  20237-4 0  9995
2 18749  82.5118  73.6652 0018318 165.7253 194.4485 14.85627385 61231
COSMOS 1933             
1 18958U 88020A   26198.54133337  .00001952  00000+0  92074-4 0  9996
2 18958  82.5141 122.3745 0005885 101.4421 258.7475 15.18897699 69935
SL-3 R/B                
1 19046U 88032B   26198.57259371  .00002016  00000+0  93205-4 0  9997
2 19046  97.5277 181.5899 0026712 137.7326 222.5975 15.21041426 71845
SL-16 R/B               
1 19120U 88039B   26198.63093790  .00000081  00000+0  61140-4 0  9998
2 19120  71.0141 153.7846 0020491 145.4509 214.7952 14.19631261976823
COSMOS 1953             
1 19210U 88050A   26198.49230358  .00003702  00000+0  12473-3 0  9995
2 19210  82.5064  27.4609 0011304  32.6264 327.5673 15.30354847 57623
SL-8 R/B                
1 19257U 88053B   26198.54493162  .00000103  00000+0  41895-4 0  9992
2 19257  74.0455 233.0974 0019820  17.9526 142.4432 14.38978982995270
COSMOS 1975             
1 19573U 88093A   26198.37942732  .00003414  00000+0  11731-3 0  9993
2 19573  82.5205 347.3209 0012444  75.7456 284.5166 15.29677150 39227
SL-14 R/B               
1 19574U 88093B   26198.66539755  .00000191  00000+0  19142-4 0  9997
2 19574  82.5314 280.0331 0019807 331.8713 190.3426 14.85760868 20313
SL-16 R/B               
1 19650U 88102B   26198.51926296  .00000021  00000+0  34789-4 0  9993
2 19650  70.9974 238.3168 0014174 181.8473 178.2601 14.16166647945273
INTERCOSMOS 24          
1 20261U 89080A   26198.43367406  .00000106  00000+0  27547-4 0  9990
2 20261  82.6052  19.9568 1187064 351.7502   6.5488 12.59692535683133
SL-14 R/B               
1 20262U 89080C   26198.64274409  .00000058  00000+0  16483-4 0  9997
2 20262  82.5932  89.7393 1228782 247.6902  98.9597 12.50578764676395
DELTA 1 R/B             
1 20323U 89089B   26198.49813051  .00000107  00000+0  35023-4 0  9995
2 20323  97.0636  25.2058 0070604  72.8646 288.0268 14.50748544914555
ARIANE 40 R/B           
1 20443U 90005H   26198.54992475  .00000084  00000+0  40066-4 0  9999
2 20443  98.2943 255.2193 0010431 167.1178 193.0279 14.39941317911494
DELTA 2 R/B(1)          
1 20453U 90008B   26198.55883911  .00075445  00000+0  45541-3 0  9993
2 20453  35.5993  31.7000 0057924  38.5881 321.8981 15.73990682946484
