OBJECT_NAME,OBJECT_ID,EPOCH,MEAN_MOTION,ECCENTRICITY,INCLINATION,RA_OF_ASC_NODE,ARG_OF_PERICENTER,MEAN_ANOMALY,EPHEMERIS_TYPE,CLASSIFICATION_TYPE,NORAD_CAT_ID,ELEMENT_SET_NO,REV_AT_EPOCH,BSTAR,MEAN_MOTION_DOT,MEAN_MOTION_DDOT
SL-8 R/B,1985-006B,2026-07-17T11:34:45.465888,14.37846071,.00192581,74.0454,22.3115,265.0035,115.8849,0,U,15483,999,17268,.47336813E-4,.117E-5,0
SL-12 R/B(2),1985-042D,2026-07-17T08:38:07.920960,14.22011163,.00373665,71.1067,173.7681,283.0157,239.8541,0,U,15772,999,13282,.5109187E-4,.66E-6,0
SL-14 R/B,1985-069B,2026-07-17T11:02:17.117376,14.86536016,.00201541,82.5260,262.8963,120.2525,240.0690,0,U,15945,999,19211,.21274818E-4,.214E-5,0
SL-16 R/B,1985-097B,2026-07-17T12:09:55.328832,14.16613854,.00057451,71.0006,227.2457,47.0336,102.5432,0,U,16182,999,10561,.14039529E-3,.232E-5,0
SL-14 R/B,1986-006B,2026-07-17T06:23:19.730976,14.86969203,.00756406,82.5283,137.8090,201.9347,157.8628,0,U,16496,999,16846,.22057791E-4,.235E-5,0
COSMOS 1743,1986-034A,2026-07-17T06:16:43.165344,15.69781946,.00054675,82.5274,296.6896,170.3376,189.7992,0,U,16719,999,20050,.30811072E-3,.36795E-3,0
SL-14 R/B,1986-046B,2026-07-17T07:49:35.670720,14.85691449,.00237078,82.4840,317.6975,156.1210,204.1112,0,U,16792,999,14565,.24487576E-4,.238E-5,0
SL-14 R/B,1986-055B,2026-07-17T10:42:26.393184,14.85741113,.00173261,82.5205,4.6798,262.1370,127.7230,0,U,16882,999,13863,.19314144E-4,.192E-5,0
AJISAI (EGS),1986-061A,2026-07-17T15:31:25.500288,12.44516673,.00110847,50.0107,53.7328,258.1517,147.7280,0,U,16908,999,48418,-.23126631E-4,-.101E-5,0
SL-14 R/B,1987-024B,2026-07-17T09:06:46.790208,14.86232617,.00180118,82.5299,330.8708,186.4080,173.6909,0,U,17567,999,10739,.24039185E-4,.236E-5,0
COSMOS 1833,1987-027A,2026-07-17T13:08:36.934944,14.13067184,.00243987,70.9212,53.0556,4.9441,355.1916,0,U,17589,999,2866,.48802114E-4,.43E-6,0
SL-16 R/B,1987-027B,2026-07-17T10:13:36.672096,14.17174231,.00071537,71.0034,3.1044,279.3276,80.7039,0,U,17590,999,3372,.11782603E-3,.19E-5,0
SL-14 R/B,1987-038B,2026-07-17T08:58:42.954528,14.85462245,.00208645,82.5014,174.6377,95.5430,264.8167,0,U,17912,999,9848,.19539447E-4,.194E-5,0
COSMOS 1844,1987-041A,2026-07-17T05:32:50.464032,14.14581146,.00311996,70.8998,120.9356,192.3719,167.6640,0,U,17973,999,2190,.40837276E-4,.3E-6,0
SL-14 R/B,1987-055B,2026-07-17T12:43:22.491552,14.85727723,.00192869,82.4969,226.6237,306.9040,53.0408,0,U,18153,999,8921,.15655406E-4,.16E-5,0
COSMOS 1867,1987-060A,2026-07-17T05:50:17.262240,14.31518644,.00172068,65.0118,303.8844,282.0014,77.9142,0,U,18187,999,3848,.12806533E-4,-.66E-6,0
SL-14 R/B,1988-001B,2026-07-17T01:30:28.400544,14.85627385,.00183187,82.5118,73.6652,165.7253,194.4485,0,U,18749,999,6123,.20236989E-4,.2E-5,0
COSMOS 1933,1988-020A,2026-07-17T12:59:31.203168,15.18897699,.00058854,82.5141,122.3745,101.4421,258.7475,0,U,18958,999,6993,.92074477E-4,.1952E-4,0
SL-3 R/B,1988-032B,2026-07-17T13:44:32.096544,15.21041426,.00267123,97.5277,181.5899,137.7326,222.5975,0,U,19046,999,7184,.93204894E-4,.2016E-4,0
SL-16 R/B,1988-039B,2026-07-17T15:08:33.034560,14.19631261,.00204918,71.0141,153.7846,145.4509,214.7952,0,U,19120,999,97682,.6113995E-4,.81E-6,0
COSMOS 1953,1988-050A,2026-07-17T11:48:55.029312,15.30354847,.00113045,82.5064,27.4609,32.6264,327.5673,0,U,19210,999,5762,.12472889E-3,.3702E-4,0
SL-8 R/B,1988-053B,2026-07-17T13:04:42.091968,14.38978982,.00198204,74.0455,233.0974,17.9526,142.4432,0,U,19257,999,99527,.41894534E-4,.103E-5,0
COSMOS 1975,1988-093A,2026-07-17T09:06:22.520448,15.29677150,.00124449,82.5205,347.3209,75.7456,284.5166,0,U,19573,999,3922,.11730669E-3,.3414E-4,0
SL-14 R/B,1988-093B,2026-07-17T15:58:10.348320,14.85760868,.00198077,82.5314,280.0331,331.8713,190.3426,0,U,19574,999,2031,.19142357E-4,.191E-5,0
SL-16 R/B,1988-102B,2026-07-17T12:27:44.319744,14.16166647,.0014174,70.9974,238.3168,181.8473,178.2601,0,U,19650,999,94527,.3478908E-4,.21E-6,0
INTERCOSMOS 24,1989-080A,2026-07-17T10:24:29.438784,12.59692535,.11870646,82.6052,19.9568,351.7502,6.5488,0,U,20261,999,68313,.27546641E-4,.106E-5,0
SL-14 R/B,1989-080C,2026-07-17T15:25:33.089376,12.50578764,.12287827,82.5932,89.7393,247.6902,98.9597,0,U,20262,999,67639,.16482938E-4,.58E-6,0
DELTA 1 R/B,1989-089B,2026-07-17T11:57:18.476064,14.50748544,.00706045,97.0636,25.2058,72.8646,288.0268,0,U,20323,999,91455,.35023238E-4,.107E-5,0
ARIANE 40 R/B,1990-005H,2026-07-17T13:11:53.498400,14.39941317,.0010431,98.2943,255.2193,167.1178,193.0279,0,U,20443,999,91149,.40065997E-4,.84E-6,0
DELTA 2 R/B(1),1990-008B,2026-07-17T13:24:43.699104,15.73990682,.00579241,35.5993,31.7000,38.5881,321.8981,0,U,20453,999,94648,.45541162E-3,.75445E-3,0
